STARLINK-35457          
1 66433U 25259M   26068.94586561  .00039394  00000+0  14323-2 0  9993
2 66433  43.0058 272.6221 0002870 251.7755 108.2784 15.27604667 19537
KUIPER-00209            
1 67776U 26030N   26068.61786546  .00035298  00000+0  11963-2 0  9997
2 67776  51.8838 220.0775 0012191  59.1967 301.0215 15.30161950  5077
